OBJECT_NAME,OBJECT_ID,EPOCH,MEAN_MOTION,ECCENTRICITY,INCLINATION,RA_OF_ASC_NODE,ARG_OF_PERICENTER,MEAN_ANOMALY,EPHEMERIS_TYPE,CLASSIFICATION_TYPE,NORAD_CAT_ID,ELEMENT_SET_NO,REV_AT_EPOCH,BSTAR,MEAN_MOTION_DOT,MEAN_MOTION_DDOT
LEMUR-2-ROUNDTRIPPER,2025-009DG,2026-07-18T18:16:39.020736,15.04262462,.00044849,97.7243,282.4037,57.6455,302.5204,0,U,62711,999,8237,.28090208E-3,.3847E-4,0
LEMUR-2-MYNAMEISJEFF,2025-009DH,2026-07-18T23:01:52.102848,15.04255698,.00043411,97.7291,283.0021,89.9974,270.1749,0,U,62712,999,8240,.30087212E-3,.4124E-4,0
LEMUR-2-LEIA-PHILIP,2025-052AN,2026-07-18T22:41:42.180576,14.97392683,.0005036,97.6795,91.3575,111.6647,248.5112,0,U,63246,999,7342,.7701559E-5,.32E-6,0
LEMUR-2-LIA-MARTIN,2025-052AQ,2026-07-18T22:31:32.196576,14.98042685,.00050385,97.6855,91.8757,80.7004,279.4788,0,U,63248,999,7343,.11355763E-3,.1284E-4,0
LEMUR-2-DELOITTE-1,2025-052BB,2026-07-18T22:04:16.722336,14.97800195,.00025429,97.6885,92.1869,59.6810,300.4664,0,U,63259,999,7344,.20677342E-3,.2371E-4,0
LEMUR-2-EMERSONROSE,2025-052BD,2026-07-18T22:19:18.155136,14.99308962,.00024902,97.6884,92.8192,51.8610,308.2838,0,U,63261,999,7349,.18977813E-3,.2259E-4,0
LEMUR-2-MARACHE-FRAN,2025-052BE,2026-07-18T16:24:11.504736,15.00327527,.00056074,97.6820,92.9461,238.5263,121.5413,0,U,63262,999,7348,.13044778E-3,.1577E-4,0
LEMUR-2-THEFALCONER,2025-052BG,2026-07-18T16:24:04.362912,14.97570780,.00005391,97.6818,91.5411,237.8231,122.2939,0,U,63264,999,7340,.9316382E-4,.103E-4,0
LEMUR-2-UNTITLED-SC,2025-061A,2026-07-18T21:18:37.339488,15.13659594,.00195527,97.5660,175.0260,150.7612,209.4718,0,U,63351,999,7238,.10174143E-3,.177E-4,0
LEMUR-2-ESPERANZA,2025-061B,2026-07-18T20:42:43.873056,15.13765530,.00191681,97.5666,175.1024,150.1624,210.0705,0,U,63352,999,7238,.98408965E-4,.1715E-4,0
LEMUR-2-KREMPEL-BRO2,2025-061C,2026-07-18T21:08:33.770688,15.14192896,.00202872,97.5710,175.6939,143.0980,217.1652,0,U,63353,999,7240,.10498386E-3,.1858E-4,0
LEMUR-2-THERMORAPTOR,2025-061D,2026-07-18T20:40:16.490208,15.14275787,.00200234,97.5718,175.7562,142.1235,218.1410,0,U,63354,999,7240,.10446744E-3,.1852E-4,0
LEMUR-2-NEUROSPICY,2025-061E,2026-07-18T21:31:06.542400,15.14394723,.00178055,97.5646,175.3929,144.7929,215.4483,0,U,63355,999,7241,.10372902E-3,.1843E-4,0
LEMUR-2-TILLINFINITY,2025-061F,2026-07-18T22:04:17.579424,15.14979592,.00192941,97.5630,175.7286,133.7639,226.5194,0,U,63356,999,7244,.10787037E-3,.1954E-4,0
LEMUR-2-KREMPEL-BRO1,2025-061G,2026-07-18T21:31:55.780896,15.14786023,.00199668,97.5632,175.6133,135.2144,225.0704,0,U,63357,999,7243,.10378295E-3,.1867E-4,0
LEMUR-2-LANGER2SPACE,2025-061H,2026-07-18T20:44:07.579104,15.14479414,.00177044,97.5636,175.3817,143.2833,216.9615,0,U,63358,999,7241,.10494017E-3,.187E-4,0
LEMUR-2-BALTO,2025-052BH,2026-07-18T22:25:38.440416,15.00382047,.0004996,97.6920,93.1873,311.6169,48.4626,0,U,63395,999,7352,.17925062E-3,.2192E-4,0
LEMUR-2-KRISH,2025-135AK,2026-07-18T20:06:44.862336,14.96462313,.00011179,97.7766,314.5051,102.6751,257.4595,0,U,64561,999,5865,.17997815E-3,.1984E-4,0
LEMUR-2-HUBBLE-4,2025-135AP,2026-07-18T21:25:21.651744,14.93691291,.00029581,97.7722,313.4327,153.4177,206.7195,0,U,64565,999,5860,.45430254E-4,.424E-5,0
LEMUR-2-SEJONG-2,2025-135BL,2026-07-18T20:35:24.892800,14.96929004,.00041922,97.7709,314.6703,201.2616,158.8432,0,U,64586,999,5868,.21748493E-3,.244E-4,0
LEMUR-2-HUBBLE-5,2025-135BT,2026-07-18T21:36:12.402720,14.94218243,.00045954,97.7742,314.1132,220.3089,139.7791,0,U,64840,999,5864,.38940212E-4,.36E-5,0
LEMUR-2-KARENDARRELL,2025-135BU,2026-07-18T20:44:22.671456,15.00529135,.00127548,97.7722,316.0333,93.5152,266.7531,0,U,64841,999,5876,.31556428E-3,.3924E-4,0
LEMUR-2-LUCILLE-ROSE,2025-135BV,2026-07-18T13:42:05.645088,15.00510880,.0015273,97.7705,315.7752,178.9427,181.1832,0,U,65403,999,5334,.24788E-3,.307E-4,0
LEMUR-2-AFFIE-WAUWIE,2025-248C,2026-07-18T13:44:01.212000,15.28344711,.000904,45.3903,304.7895,269.7591,90.2263,0,U,66295,999,3939,.44883E-3,.12349E-3,0
OTTER SDM,2025-276N,2026-07-18T21:58:10.629984,15.20080884,.00045005,97.4197,272.8699,236.8031,123.2773,0,U,66678,999,3523,.14686317E-3,.3102E-4,0
LEMUR-2-STAS-GORBUK,2025-276W,2026-07-18T17:45:59.696064,15.19678012,.00038281,97.4231,272.7490,230.7972,129.2923,0,U,66686,999,3520,.12640266E-3,.2629E-4,0
LEMUR-2-TEODOR,2025-276DG,2026-07-18T16:32:41.409888,15.21357820,.00021822,97.4137,272.9752,85.2409,274.9076,0,U,66768,999,3523,.12868843E-3,.2814E-4,0
LEMUR-2-LAILA,2025-276DQ,2026-07-18T17:23:09.324672,15.21584359,.00028677,97.4160,273.1506,89.1323,271.0242,0,U,66776,999,3524,.12555462E-3,.2762E-4,0
LEMUR-2-CELIJO-SB-PK,2025-276DW,2026-07-18T17:16:24.708288,15.00305865,.00067659,97.5187,269.4564,55.8337,304.3528,0,U,66781,999,2735,.23474119E-3,.2886E-4,0
